CELESTIS-03             
1 26034U 99070C   22228.81964520  .00013168  00000+0  60468-3 0  9996
2 26034  98.3120 240.8601 0007663 282.1955  77.8419 15.20530413230246
O3B FM5                 
1 39188U 13031A   22227.04511217 -.00000027  00000+0  00000+0 0  9991
2 39188   0.0557  22.0644 0002572 124.1159 213.8327  5.00115247166896
O3B FM4                 
1 39189U 13031B   22226.50150246 -.00000027  00000+0  00000+0 0  9993
2 39189   0.0559 352.8466 0002535 152.1556 215.0109  5.00115789166877
O3B FM2                 
1 39190U 13031C   22227.59243491 -.00000027  00000+0  00000+0 0  9990
2 39190   0.0585 348.2290 0002573 157.3160 214.4685  5.00116814166997
O3B PFM                 
1 39191U 13031D   22225.81964428 -.00000027  00000+0  00000+0 0  9994
2 39191   0.0526  13.0737 0002645 129.6464 217.2946  5.00115665166461
O3B FM3                 
1 40079U 14038A   22227.67341157 -.00000027  00000+0  00000+0 0  9993
2 40079   0.0550   0.8228 0005028 137.6685 221.5437  5.00115365142932
O3B FM7                 
1 40080U 14038B   22225.42068661 -.00000027  00000+0  00000+0 0  9992
2 40080   0.0587 358.5688 0001161 182.7542 178.6730  5.00115418147644
O3B FM6                 
1 40081U 14038C   22227.84574817 -.00000027  00000+0  00000+0 0  9996
2 40081   0.0543 359.9478 0002692 145.4409 214.6257  5.00115414147727
O3B FM8                 
1 40082U 14038D   22227.69980268 -.00000027  00000+0  00000+0 0  9991
2 40082   0.0538 356.5978 0002675 145.4822 217.9356  5.00115641147830
O3B FM10                
1 40348U 14083A   22227.12615276 -.00000027  00000+0  00000+0 0  9998
2 40348   0.0494   8.4948 0002627 135.2873 216.2324  5.00115162139753
O3B FM11                
1 40349U 14083B   22228.13907718 -.00000027  00000+0  00000+0 0  9996
2 40349   0.0541   9.6132 0002306 149.9179 200.4753  5.00115429139825
O3B FM12                
1 40350U 14083C   22228.16627757 -.00000027  00000+0  00000+0 0  9993
2 40350   0.0537   8.6763 0002709 140.5268 210.8098  5.00115241139834
O3B FM9                 
1 40351U 14083D   22227.39365148 -.00000027  00000+0  00000+0 0  9991
2 40351   0.0551  10.2171 0002584 134.9970 214.7995  5.00115585139932
DIAMOND RED             
1 42783U 17036U   22228.90043567  .00007181  00000+0  26255-3 0  9990
2 42783  97.1951 267.6369 0012132 112.6925 247.5599 15.28299127286173
DIAMOND GREEN           
1 42785U 17036W   22228.37669522  .00007357  00000+0  26933-3 0  9996
2 42785  97.1953 267.1941 0011955 115.3743 244.8736 15.28251527286162
DIAMOND BLUE            
1 42786U 17036X   22228.37571764  .00006986  00000+0  25587-3 0  9998
2 42786  97.1955 267.1855 0011991 115.9416 244.3061 15.28254685286166
LEO VANTAGE 1           
1 43113U 18004C   22228.84223791  .00001211  00000+0  10338-3 0  9999
2 43113  99.2455 315.3095 0401140  10.0440 350.8475 14.54035239233010
O3B FM15                
1 43231U 18024A   22228.65893762 -.00000027  00000+0  00000+0 0  9998
2 43231   0.0461   7.9414 0002889 140.1090 211.9644  5.00115975 80966
O3B FM16                
1 43232U 18024B   22227.91275621 -.00000027  00000+0  00000+0 0  9995
2 43232   0.0418   8.6884 0002864 139.1011 212.2249  5.00115867 80844
O3B FM14                
1 43233U 18024C   22227.95235461 -.00000027  00000+0  00000+0 0  9998
2 43233   0.0404   7.9461 0002680 141.3506 210.7159  5.00115283 80859
O3B FM13                
1 43234U 18024D   22228.60552329 -.00000027  00000+0  00000+0 0  9997
2 43234   0.0489  34.3549 0003563 122.7514 202.9068  5.00115022 80995
O3B FM20                
1 44112U 19020A   22228.77863833 -.00000027  00000+0  00000+0 0  9993
2 44112   0.0495   7.5642 0002937 147.9227 204.5244  5.00115457 61511
O3B FM19                
1 44113U 19020B   22228.60552172 -.00000027  00000+0  00000+0 0  9997
2 44113   0.0586  21.2174 0001763 132.3023 206.4865  5.00115027 61360
O3B FM17                
1 44114U 19020C   22228.48617405 -.00000027  00000+0  00000+0 0  9995
2 44114   0.0414 344.2198 0003001 164.7183 211.0768  5.00115531 61452
O3B FM18                
1 44115U 19020D   22228.43270442 -.00000027  00000+0  00000+0 0  9997
2 44115   0.0496   7.9871 0002871 137.3549 214.6738  5.00115781 61565
SALSAT                  
1 46495U 20068K   22228.81456008  .00001315  00000+0  97552-4 0  9993
2 46495  97.7310 170.1494 0018201  74.6001 285.7234 15.04716941103264
ISS (ZARYA)             
1 25544U 98067A   22228.93504921  .00005648  00000+0  10612-3 0  9994
2 25544  51.6421  35.6401 0005525 129.3747 328.9951 15.50203667354600
AEROCUBE 12A            
1 43556U 18046C   22228.77827106  .00014567  00000+0  35400-3 0  9993
2 43556  51.6355 249.3551 0005609 263.8811  96.1535 15.41211681228616
AEROCUBE 12B            
1 43557U 18046D   22228.79897080  .00011333  00000+0  29981-3 0  9999
2 43557  51.6369 254.6668 0005923 257.0015 103.0308 15.38858892228499
LEMUR-2-VU              
1 43558U 18046E   22228.57702698  .00029166  00000+0  51323-3 0  9994
2 43558  51.6358 228.9848 0004920 275.9223  84.1205 15.50206510228862
LEMUR-2-ALEXANDER       
1 43559U 18046F   22228.69063371  .00035226  00000+0  58871-3 0  9995
2 43559  51.6362 226.0248 0004526 295.7438  64.3084 15.51565749228690
LEMUR-2-YUASA           
1 43560U 18046G   22228.72946832  .00034417  00000+0  59417-3 0  9991
2 43560  51.6373 228.5086 0005025 302.0017  58.0484 15.50660984228882
LEMUR-2-TOMHENDERSON    
1 43561U 18046H   22228.73200641  .00029842  00000+0  56272-3 0  9996
2 43561  51.6378 232.2295 0005221 295.1001  64.9445 15.48217377228395
ISS DEB (SEDA-AP)       
1 43870U 98067PU  22228.47227226  .00147981  20012-4  33422-3 0  9996
2 43870  51.6253 274.9744 0003970  18.4988 341.6165 15.97301652208487
STPSAT-4                
1 45043U 98067QY  22228.40407160  .00135843  00000+0  51061-3 0  9993
2 45043  51.6336 345.6574 0003634   2.4756 357.6265 15.86896959144982
SORTIE                  
1 45264U 98067RH  22228.49464848  .00191164  25012-4  53447-3 0  9996
2 45264  51.6378 338.0460 0005120   7.7706 352.3380 15.93247176141760
ICS-EF (ISS DEB)        
1 45265U 98067RJ  22228.66430862  .00026541  00000+0  26816-3 0  9996
2 45265  51.6378   7.7623 0003934  58.3427 301.7951 15.65125146141061
RED-EYE 2 (MERLOT)      
1 45800U 98067RM  22228.39078328  .00063026  00000+0  40146-3 0  9997
2 45800  51.6386 356.9812 0001037 355.4996   4.5995 15.75809220123045
RED-EYE 3 (CABERNET)    
1 45809U 98067RN  22228.45791294  .00066072  00000+0  42066-3 0  9994
2 45809  51.6398 356.6847 0001412  10.1688 349.9341 15.75801240122035
ISS DEB                 
1 47853U 98067RZ  22228.51706555  .00008217  00000+0  12876-3 0  9991
2 47853  51.6421  30.8882 0001869 218.2078 141.8781 15.54658496 81258
MMSATS-1                
1 47976U 98067SJ  22228.92894887  .00022830  00000+0  26634-3 0  9992
2 47976  51.6405  20.6749 0001234 225.2014 210.7598 15.61536332 79700
CSS (TIANHE)            
1 48274U 21035A   22228.91328877 -.00002279  00000+0 -21881-4 0  9992
2 48274  41.4718 209.0807 0003557 107.5486 343.8659 15.61559006 74264
ISS DEB                 
1 48833U 98067SK  22228.68665541  .00055242  00000+0  44970-3 0  9997
2 48833  51.6365  16.1661 0001977 266.0923  93.9848 15.70102132 68600
RAMSAT                  
1 48850U 98067SL  22228.43102267  .00104308  00000+0  53781-3 0  9998
2 48850  51.6365   9.1791 0004463 302.2427  57.8142 15.80324452 66785
BD-28                   
1 48867U 98067SN  22228.37008708  .00228608  30312-4  72952-3 0  9999
2 48867  51.6258   4.1085 0006888 315.6423  44.4031 15.90628173 65597
ISS (NAUKA)             
1 49044U 21066A   22228.48311150  .00005553  00000+0  10448-3 0  9992
2 49044  51.6421  37.8798 0005525 126.9629 327.6000 15.50197851354536
FREGAT DEB              
1 49271U 11037PF  22228.60305122  .00061196  00000+0  24577+0 0  9996
2 49271  51.6647  70.6175 0923648 158.2032 206.0906 11.92250905 54346
BINAR-1                 
1 49272U 98067SR  22228.79872455  .00152175  00000+0  70070-3 0  9994
2 49272  51.6309  10.8246 0003694 276.1334  83.9248 15.82607199 49183
CUAVA-1                 
1 49275U 98067SU  22228.72028403  .00495650  11932-3  88687-3 0  9997
2 49275  51.6258   4.6436 0009951 306.8763 186.5196 16.01050026 49208
CAPSAT                  
1 49276U 98067SV  22228.68794354  .00218608  00000+0  82144-3 0  9996
2 49276  51.6350  10.8686 0005236 288.2493  71.7941 15.86659533 48238
PR-CUNAR 2              
1 49277U 98067SW  22228.44890624  .00478666  10887-3  95893-3 0  9993
2 49277  51.6181   7.5364 0009442 306.5848  53.4292 15.99097389 48222
1998-067TD              
1 51441U 98067TD  22228.48404813  .00062261  00000+0  54834-3 0  9996
2 51441  51.6372  25.3257 0003860 104.2680 255.8745 15.68133618 31577
PATCOOL                 
1 51442U 98067TE  22228.51290072  .00067340  00000+0  58214-3 0  9990
2 51442  51.6351  24.7468 0003826 109.5460 250.5950 15.68557040 31544
LIGHT-1                 
1 51509U 98067TG  22228.86179595  .00045100  00000+0  48532-3 0  9990
2 51509  51.6401  26.3774 0006220  96.0449 264.1255 15.63240004 30339
PROGRESS-MS 19          
1 51660U 22014A   22228.48311150  .00005553  00000+0  10448-3 0  9993
2 51660  51.6421  37.8798 0005525 126.9629 327.6000 15.50197851354533
SOYUZ-MS 21             
1 52086U 22028A   22228.48311150  .00005553  00000+0  10448-3 0  9991
2 52086  51.6421  37.8798 0005525 126.9629 327.6000 15.50197851354536
IHI-SAT                 
1 52147U 98067TJ  22228.83088524  .00064649  00000+0  75415-3 0  9996
2 52147  51.6367  29.8927 0003015 162.6186 197.4911 15.61020036 22735
KITSUNE                 
1 52148U 98067TK  22228.83587763  .00027868  00000+0  38013-3 0  9991
2 52148  51.6422  31.8902 0003836 129.9987  19.7532 15.57272908 22647
CREW DRAGON 4           
1 52318U 22042A   22228.48311150  .00005553  00000+0  10448-3 0  9995
2 52318  51.6421  37.8798 0005525 126.9629 327.6000 15.50197851354534
